[{"OBJECT_NAME":"TIANQI-14","OBJECT_ID":"2021-055E","EPOCH":"2026-03-09T21:13:53.334048","MEAN_MOTION":15.12385268,"ECCENTRICITY":0.00041067,"INCLINATION":35.0005,"RA_OF_ASC_NODE":333.4675,"ARG_OF_PERICENTER":169.8812,"MEAN_ANOMALY":190.1982,"EPHEMERIS_TYPE":0,"CLASSIFICATION_TYPE":"U","NORAD_CAT_ID":48864,"ELEMENT_SET_NO":999,"REV_AT_EPOCH":25867,"BSTAR":0.00046306259,"MEAN_MOTION_DOT":8.192e-5,"MEAN_MOTION_DDOT":0},{"OBJECT_NAME":"OBJECT J","OBJECT_ID":"2024-205J","EPOCH":"2026-03-09T23:28:57.561600","MEAN_MOTION":15.10710806,"ECCENTRICITY":0.00148701,"INCLINATION":97.4211,"RA_OF_ASC_NODE":142.3026,"ARG_OF_PERICENTER":147.8528,"MEAN_ANOMALY":212.3612,"EPHEMERIS_TYPE":0,"CLASSIFICATION_TYPE":"U","NORAD_CAT_ID":61902,"ELEMENT_SET_NO":999,"REV_AT_EPOCH":7320,"BSTAR":0.00056466438,"MEAN_MOTION_DOT":9.322e-5,"MEAN_MOTION_DDOT":0}]
